NAVSTAR 86 (USA 585)    
1 68791U 26087A   26111.59767698  .00000775  00000+0  55277-3 0  9999
2 68791  55.0059 211.2053 5941510 270.0301  26.2191  4.03269180    25
