{
  "norad_id": 68791,
  "name": "NAVSTAR 86 (USA 585)",
  "history": [
    {
      "epoch": "2026-04-21T14:20:39.291072Z",
      "apogee_km": 20200.616485689698,
      "perigee_km": 388.449429650439,
      "latitude_deg": 9.971435632308658e-05,
      "longitude_deg": 146.3634304568139,
      "height_km": 4420.212094177762,
      "semi_major_axis_km": 16672.669957670067,
      "eccentricity": 0.594151,
      "inclination_deg": 55.0059,
      "raan_deg": 211.2053,
      "arg_perigee_deg": 270.0301,
      "mean_anomaly_deg": 26.2191,
      "mean_motion_rev_day": 4.0326918
    }
  ]
}